<?xml version="1.0" encoding="UTF-8"?>
<kml xmlns="http://www.opengis.net/kml/2.2">
  <Document>
    <name>篠岡地区 スクールバス通学対象エリアと新しい通学区域</name>
    <description>通学区域（赤線）は国土数値情報「小学校区」（国土交通省）と国勢調査の町丁境（総務省統計局）から、『篠岡地区 学校再編だより』が示す統合の組合せどおりに合成したもので、町丁の境まで正確です（面積は桃花台東20.3km²・桃花台西6.9km²で市の公表値と一致）。スクールバス対象エリア（紫）は、市が公表している対象エリア図の着色部分を色で抽出し、原図の学校区線に通学区域データを重ねて位置合わせしたもので、原図に対する誤差はおおむね4mです。原図は北東側が枠で切れているため、公表されている18.5km²のうち12.3km²が入っています。正式な対象可否は市から届く書類でご確認ください。</description>
    <Style id="area"><LineStyle><color>ffa8485b</color><width>2</width></LineStyle><PolyStyle><color>66c46e7e</color></PolyStyle></Style>
    <Style id="dist"><LineStyle><color>ff2f2fd3</color><width>3</width></LineStyle><PolyStyle><fill>0</fill></PolyStyle></Style>
    <Style id="sch"><IconStyle><Icon><href>http://maps.google.com/mapfiles/kml/paddle/grn-circle.png</href></Icon></IconStyle></Style>
    <Placemark><name>通学区域：桃花台東</name><description>面積 20.31 km²（市の公表値 20.3 km²）。国土数値情報＋国勢調査町丁境から合成。</description><styleUrl>#dist</styleUrl><Polygon><outerBoundaryIs><LinearRing><coordinates>137.010747,35.290519,0 137.010407,35.290342,0 137.010730,35.289678,0 137.010440,35.288696,0 137.010062,35.288298,0 137.010208,35.288052,0 137.010129,35.287773,0 137.010272,35.287410,0 137.010135,35.286942,0 137.011122,35.286235,0 137.011884,35.285393,0 137.012055,35.285432,0 137.012885,35.284550,0 137.012824,35.284510,0 137.012484,35.284655,0 137.011201,35.285864,0 137.010046,35.286577,0 137.009179,35.287562,0 137.008789,35.287562,0 137.008670,35.287356,0 137.008883,35.286846,0 137.009392,35.286081,0 137.010428,35.285247,0 137.010589,35.284992,0 137.010666,35.284437,0 137.010378,35.284517,0 137.010462,35.284868,0 137.010377,35.285157,0 137.010004,35.285378,0 137.009422,35.285344,0 137.008916,35.285716,0 137.008493,35.286969,0 137.008072,35.287462,0 137.007496,35.287007,0 137.007348,35.286335,0 137.007226,35.286198,0 137.007025,35.286156,0 137.006801,35.286370,0 137.006309,35.286487,0 137.005943,35.286509,0 137.005725,35.286345,0 137.005507,35.285979,0 137.005669,35.285718,0 137.005857,35.284365,0 137.005681,35.284365,0 137.005128,35.284978,0 137.004738,35.286136,0 137.003778,35.287149,0 137.003158,35.287066,0 137.002844,35.286907,0 137.002809,35.286570,0 137.003299,35.286416,0 137.003473,35.286165,0 137.003054,35.285515,0 137.002728,35.285639,0 137.002445,35.285604,0 137.002278,35.285776,0 137.001956,35.285710,0 137.001556,35.285417,0 137.001126,35.285369,0 137.001035,35.285192,0 137.000627,35.284999,0 137.000601,35.284599,0 137.000414,35.284537,0 137.000211,35.284606,0 137.000174,35.284979,0 136.999956,35.285226,0 136.999455,35.285305,0 136.999720,35.284609,0 136.999210,35.284591,0 136.999077,35.283587,0 136.998342,35.283662,0 136.997943,35.283821,0 136.997344,35.283758,0 136.996866,35.283840,0 136.996869,35.283586,0 136.996139,35.283565,0 136.994655,35.282682,0 136.994544,35.282713,0 136.994593,35.282865,0 136.994067,35.282625,0 136.994241,35.282304,0 136.993704,35.282419,0 136.992359,35.282156,0 136.991970,35.282142,0 136.991852,35.282258,0 136.991121,35.281905,0 136.990046,35.281579,0 136.989489,35.280889,0 136.988638,35.280554,0 136.988334,35.280239,0 136.987774,35.281227,0 136.987005,35.281625,0 136.986651,35.282278,0 136.986210,35.282615,0 136.985823,35.282611,0 136.985004,35.282301,0 136.984579,35.282278,0 136.983848,35.281962,0 136.983508,35.282007,0 136.981094,35.281486,0 136.980615,35.281498,0 136.979449,35.282385,0 136.979353,35.282989,0 136.979452,35.283282,0 136.979604,35.283361,0 136.979489,35.283962,0 136.980021,35.284565,0 136.980095,35.284863,0 136.979941,35.284913,0 136.980101,35.285206,0 136.980445,35.285211,0 136.980675,35.285880,0 136.980648,35.286629,0 136.981012,35.287658,0 136.982242,35.289800,0 136.982002,35.289952,0 136.982458,35.289724,0 136.982618,35.289252,0 136.982833,35.289123,0 136.983153,35.289116,0 136.983230,35.289012,0 136.983403,35.289124,0 136.984795,35.289144,0 136.987086,35.290062,0 136.987266,35.289978,0 136.987430,35.290121,0 136.987709,35.290082,0 136.989015,35.291014,0 136.988537,35.291538,0 136.987977,35.291891,0 136.987532,35.291994,0 136.986812,35.291850,0 136.986537,35.292422,0 136.987215,35.293570,0 136.986582,35.294357,0 136.989676,35.296160,0 136.988982,35.296940,0 136.988392,35.299068,0 136.988132,35.299394,0 136.987540,35.299761,0 136.985590,35.300092,0 136.980513,35.303551,0 136.980424,35.303877,0 136.979564,35.304789,0 136.978896,35.305223,0 136.978623,35.305184,0 136.977604,35.306585,0 136.977186,35.306942,0 136.977007,35.307528,0 136.976680,35.307430,0 136.976405,35.307550,0 136.976567,35.307398,0 136.976409,35.307354,0 136.976377,35.306765,0 136.976178,35.306451,0 136.974390,35.306087,0 136.973685,35.305673,0 136.972744,35.305857,0 136.972686,35.305669,0 136.971361,35.305420,0 136.971058,35.305892,0 136.969781,35.305476,0 136.969526,35.305697,0 136.967080,35.305050,0 136.966239,35.305049,0 136.965886,35.305403,0 136.965974,35.305610,0 136.965671,35.307556,0 136.965104,35.307496,0 136.965030,35.308146,0 136.965588,35.308212,0 136.965482,35.309160,0 136.965644,35.309410,0 136.965384,35.309435,0 136.965071,35.309662,0 136.964434,35.309352,0 136.963683,35.309922,0 136.963250,35.310679,0 136.963417,35.310821,0 136.963394,35.310942,0 136.962919,35.311318,0 136.962263,35.312909,0 136.961956,35.313327,0 136.961888,35.314476,0 136.961442,35.315684,0 136.961697,35.315697,0 136.961756,35.315507,0 136.962243,35.315327,0 136.962627,35.315486,0 136.962867,35.315993,0 136.963172,35.316264,0 136.964775,35.316644,0 136.965657,35.317581,0 136.965714,35.318219,0 136.965908,35.318555,0 136.966221,35.318756,0 136.967452,35.320535,0 136.968125,35.320687,0 136.968355,35.321339,0 136.969144,35.321592,0 136.969313,35.321763,0 136.969368,35.322276,0 136.970063,35.322616,0 136.970713,35.322751,0 136.973065,35.323989,0 136.973364,35.323961,0 136.973364,35.323496,0 136.973829,35.322913,0 136.974864,35.322511,0 136.975892,35.322608,0 136.976971,35.322889,0 136.977438,35.323239,0 136.977605,35.323621,0 136.978889,35.324720,0 136.979779,35.324204,0 136.980223,35.324155,0 136.981059,35.324428,0 136.981320,35.323205,0 136.981133,35.322566,0 136.980855,35.322108,0 136.981866,35.321388,0 136.983366,35.321333,0 136.984304,35.320576,0 136.984641,35.320969,0 136.984998,35.321229,0 136.985269,35.321284,0 136.985828,35.323052,0 136.985841,35.323469,0 136.986265,35.323969,0 136.986911,35.325121,0 136.986902,35.325700,0 136.987363,35.326972,0 136.987343,35.327562,0 136.988859,35.329791,0 136.989156,35.330612,0 136.989678,35.330724,0 136.990206,35.330454,0 136.990665,35.330746,0 136.994835,35.330051,0 136.996265,35.330981,0 136.997030,35.330811,0 136.997940,35.330990,0 136.998857,35.331851,0 136.999978,35.332251,0 137.000751,35.332168,0 137.002161,35.331451,0 137.004149,35.330790,0 137.004633,35.330790,0 137.005261,35.331080,0 137.007326,35.331135,0 137.008480,35.330928,0 137.009415,35.330177,0 137.009907,35.330081,0 137.010765,35.330411,0 137.011096,35.330804,0 137.011606,35.331073,0 137.012158,35.331693,0 137.012481,35.333512,0 137.012786,35.334049,0 137.012812,35.334249,0 137.012591,35.334690,0 137.012880,35.334835,0 137.016506,35.335028,0 137.016829,35.334511,0 137.016999,35.334456,0 137.017203,35.335028,0 137.017670,35.334794,0 137.018316,35.333767,0 137.018562,35.333671,0 137.018783,35.333891,0 137.018757,35.334077,0 137.018018,35.335042,0 137.018868,35.334932,0 137.019896,35.333760,0 137.020040,35.333815,0 137.020057,35.334125,0 137.019139,35.335393,0 137.019479,35.335621,0 137.020396,35.335855,0 137.020617,35.335814,0 137.020914,35.335559,0 137.020702,35.335007,0 137.022265,35.334201,0 137.022936,35.334594,0 137.023386,35.334635,0 137.023395,35.334187,0 137.023539,35.334036,0 137.023887,35.333946,0 137.024592,35.333988,0 137.024906,35.334139,0 137.026614,35.333905,0 137.028346,35.334050,0 137.028949,35.333884,0 137.029552,35.333898,0 137.030257,35.333691,0 137.030835,35.333926,0 137.032448,35.333774,0 137.033273,35.334002,0 137.033909,35.333899,0 137.034232,35.334174,0 137.035166,35.334312,0 137.035591,35.334594,0 137.036602,35.334670,0 137.036950,35.334842,0 137.037459,35.335346,0 137.038148,35.335704,0 137.038360,35.335759,0 137.039541,35.335504,0 137.041256,35.336035,0 137.041672,35.336331,0 137.042824,35.338000,0 137.044310,35.338771,0 137.045608,35.338984,0 137.046229,35.339442,0 137.045373,35.338237,0 137.045260,35.336879,0 137.045129,35.336673,0 137.044677,35.336688,0 137.043812,35.336993,0 137.043511,35.336940,0 137.043426,35.336818,0 137.043158,35.335931,0 137.042768,35.335222,0 137.042462,35.334953,0 137.041621,35.333561,0 137.041443,35.332776,0 137.041044,35.331962,0 137.040959,35.331694,0 137.041452,35.331205,0 137.040602,35.330378,0 137.040084,35.330082,0 137.039677,35.329992,0 137.038887,35.329999,0 137.036211,35.329551,0 137.034632,35.328814,0 137.032211,35.327208,0 137.031549,35.326650,0 137.030164,35.326099,0 137.028941,35.325906,0 137.027761,35.325024,0 137.026835,35.325051,0 137.025518,35.324693,0 137.025119,35.324962,0 137.024822,35.324982,0 137.023760,35.323673,0 137.021416,35.321406,0 137.021051,35.321172,0 137.020686,35.321096,0 137.019480,35.321027,0 137.019242,35.320690,0 137.019251,35.320256,0 137.019760,35.319759,0 137.019939,35.319126,0 137.019930,35.318616,0 137.019183,35.317844,0 137.018818,35.317631,0 137.018495,35.317196,0 137.019930,35.315769,0 137.019777,35.315610,0 137.019888,35.315322,0 137.020296,35.314985,0 137.020016,35.314062,0 137.019871,35.313958,0 137.019362,35.313848,0 137.018240,35.313938,0 137.017841,35.313745,0 137.017586,35.313373,0 137.017170,35.311443,0 137.017051,35.311285,0 137.016593,35.311306,0 137.016474,35.310734,0 137.017654,35.309335,0 137.017799,35.308777,0 137.017476,35.308205,0 137.017578,35.306586,0 137.017663,35.306297,0 137.018088,35.306186,0 137.018283,35.305945,0 137.018266,35.305160,0 137.018148,35.304850,0 137.016389,35.305242,0 137.014453,35.304960,0 137.013561,35.304657,0 137.013162,35.304354,0 137.013816,35.303775,0 137.013578,35.303465,0 137.012822,35.303906,0 137.012627,35.303671,0 137.014113,35.302493,0 137.014368,35.302045,0 137.014648,35.302073,0 137.014818,35.302252,0 137.014810,35.302479,0 137.014436,35.302817,0 137.013808,35.303086,0 137.014054,35.303286,0 137.013994,35.303630,0 137.014555,35.303782,0 137.015056,35.303761,0 137.015396,35.303168,0 137.015243,35.302128,0 137.014351,35.301081,0 137.014156,35.301087,0 137.013179,35.301852,0 137.012355,35.302300,0 137.011981,35.301969,0 137.012109,35.301680,0 137.013400,35.301074,0 137.013850,35.300750,0 137.013757,35.300364,0 137.014249,35.299717,0 137.013774,35.300040,0 137.013128,35.300274,0 137.009782,35.301259,0 137.009272,35.301687,0 137.008550,35.301894,0 137.007769,35.301018,0 137.007922,35.300826,0 137.008406,35.300956,0 137.009612,35.300688,0 137.009994,35.300226,0 137.010903,35.300309,0 137.011200,35.299702,0 137.011421,35.299537,0 137.011710,35.300088,0 137.011956,35.300144,0 137.012721,35.299957,0 137.013587,35.299337,0 137.014020,35.299165,0 137.014181,35.298931,0 137.014020,35.298366,0 137.013791,35.298035,0 137.013264,35.297656,0 137.013222,35.297236,0 137.013341,35.296285,0 137.013613,35.295445,0 137.013621,35.293281,0 137.013018,35.293143,0 137.012186,35.291682,0 137.011481,35.290697,0 137.011130,35.290876,0 137.011213,35.290981,0 137.010747,35.290519,0</coordinates></LinearRing></outerBoundaryIs></Polygon></Placemark>
    <Placemark><name>通学区域：桃花台西</name><description>面積 6.89 km²（市の公表値 6.9 km²）。国土数値情報＋国勢調査町丁境から合成。</description><styleUrl>#dist</styleUrl><Polygon><outerBoundaryIs><LinearRing><coordinates>136.981734,35.290108,0 136.982242,35.289800,0 136.981012,35.287658,0 136.980648,35.286629,0 136.980675,35.285880,0 136.980445,35.285211,0 136.980101,35.285206,0 136.979941,35.284913,0 136.979777,35.284943,0 136.979680,35.285205,0 136.979156,35.284908,0 136.978444,35.285092,0 136.977855,35.284308,0 136.975929,35.284453,0 136.972633,35.285345,0 136.972297,35.285628,0 136.971571,35.285934,0 136.970425,35.287312,0 136.968105,35.289132,0 136.964996,35.287403,0 136.965114,35.287095,0 136.966793,35.286312,0 136.965466,35.284153,0 136.963834,35.284008,0 136.962394,35.283606,0 136.962302,35.283662,0 136.961861,35.283360,0 136.960883,35.283084,0 136.960423,35.282381,0 136.959372,35.282147,0 136.959655,35.281706,0 136.960177,35.281290,0 136.960341,35.280751,0 136.960061,35.280822,0 136.959003,35.280677,0 136.956982,35.280973,0 136.956742,35.281385,0 136.955276,35.281725,0 136.954799,35.282000,0 136.954118,35.282924,0 136.953628,35.283094,0 136.953936,35.283749,0 136.947280,35.285865,0 136.950972,35.291392,0 136.949539,35.291703,0 136.948375,35.292151,0 136.949752,35.294725,0 136.949528,35.294801,0 136.950213,35.295968,0 136.950025,35.296044,0 136.950408,35.296768,0 136.950041,35.296897,0 136.950826,35.297975,0 136.950683,35.298259,0 136.951443,35.298791,0 136.951708,35.298501,0 136.952151,35.298769,0 136.952566,35.298294,0 136.952818,35.298454,0 136.953832,35.298323,0 136.953926,35.299009,0 136.954174,35.299159,0 136.953905,35.299439,0 136.954896,35.300065,0 136.955015,35.299939,0 136.955499,35.300243,0 136.955699,35.300105,0 136.956563,35.300650,0 136.957765,35.300476,0 136.957854,35.301268,0 136.958665,35.301231,0 136.958711,35.302009,0 136.959086,35.302253,0 136.959954,35.302207,0 136.960055,35.302815,0 136.960660,35.303188,0 136.960346,35.303522,0 136.961293,35.304101,0 136.961583,35.303791,0 136.961986,35.303930,0 136.963634,35.303876,0 136.963554,35.304339,0 136.964148,35.304536,0 136.963832,35.305471,0 136.964034,35.305498,0 136.964001,35.305694,0 136.964623,35.305749,0 136.964644,35.305540,0 136.965702,35.305630,0 136.966239,35.305049,0 136.966681,35.304989,0 136.969526,35.305697,0 136.969781,35.305476,0 136.971058,35.305892,0 136.971361,35.305420,0 136.972686,35.305669,0 136.972744,35.305857,0 136.973685,35.305673,0 136.974390,35.306087,0 136.976178,35.306451,0 136.976377,35.306765,0 136.976409,35.307354,0 136.976567,35.307398,0 136.976405,35.307550,0 136.976680,35.307430,0 136.977007,35.307528,0 136.977186,35.306942,0 136.977604,35.306585,0 136.978623,35.305184,0 136.978896,35.305223,0 136.979564,35.304789,0 136.980424,35.303877,0 136.980513,35.303551,0 136.981095,35.303145,0 136.985590,35.300092,0 136.987540,35.299761,0 136.988132,35.299394,0 136.988528,35.298736,0 136.988982,35.296940,0 136.989676,35.296160,0 136.986582,35.294357,0 136.987215,35.293570,0 136.986537,35.292422,0 136.986812,35.291850,0 136.987532,35.291994,0 136.988188,35.291798,0 136.989015,35.291014,0 136.988841,35.290817,0 136.987709,35.290082,0 136.987430,35.290121,0 136.987266,35.289978,0 136.987086,35.290062,0 136.984795,35.289144,0 136.983403,35.289124,0 136.983230,35.289012,0 136.983153,35.289116,0 136.982833,35.289123,0 136.982618,35.289252,0 136.982458,35.289724,0 136.981734,35.290108,0</coordinates></LinearRing></outerBoundaryIs></Polygon></Placemark>
    <Placemark><name>スクールバス通学対象エリア</name><description>市が公表している対象エリア図の着色部分を色で抽出したもの。面積 12.28 km²（公表値 18.5 km² のうち原図の枠に写っている範囲）。</description><styleUrl>#area</styleUrl><Polygon><outerBoundaryIs><LinearRing><coordinates>136.967329,35.320426,0 137.015518,35.320426,0 137.015518,35.305245,0 137.014186,35.304835,0 137.013354,35.304801,0 137.013188,35.304665,0 137.013229,35.304289,0 137.013853,35.303778,0 137.013604,35.303437,0 137.012938,35.303846,0 137.012688,35.303744,0 137.012688,35.303539,0 137.013063,35.303368,0 137.014145,35.302515,0 137.014394,35.302072,0 137.014727,35.302140,0 137.014769,35.302481,0 137.014394,35.302822,0 137.013812,35.303095,0 137.014519,35.303471,0 137.015268,35.303198,0 137.015393,35.303061,0 137.015310,35.302242,0 137.014353,35.301048,0 137.014145,35.301083,0 137.013146,35.301867,0 137.012522,35.302208,0 137.012022,35.302140,0 137.012147,35.301663,0 137.012688,35.301390,0 137.012855,35.301083,0 137.013853,35.300707,0 137.013770,35.300332,0 137.014228,35.299718,0 137.013770,35.300059,0 137.013312,35.300230,0 137.010108,35.301151,0 137.010774,35.302379,0 137.010857,35.305688,0 137.010191,35.307223,0 137.009151,35.308895,0 137.009109,35.311999,0 137.008402,35.312204,0 137.007986,35.313023,0 137.007694,35.313262,0 137.007528,35.313603,0 137.006613,35.313705,0 137.005905,35.314183,0 137.003658,35.313637,0 137.002326,35.313705,0 137.001868,35.313535,0 137.001078,35.313535,0 137.000412,35.313364,0 137.000246,35.313398,0 136.999580,35.314012,0 136.998331,35.314695,0 136.997998,35.314695,0 136.997499,35.314217,0 136.994503,35.314183,0 136.992755,35.313910,0 136.986887,35.314285,0 136.986971,35.313125,0 136.983392,35.313330,0 136.983225,35.311522,0 136.984099,35.311420,0 136.984099,35.310703,0 136.983849,35.310157,0 136.983891,35.309680,0 136.984141,35.309441,0 136.984807,35.309134,0 136.985181,35.308690,0 136.985181,35.308247,0 136.981477,35.307462,0 136.978440,35.305893,0 136.978606,35.305381,0 136.978897,35.305381,0 136.979480,35.305074,0 136.980187,35.304221,0 136.981311,35.303402,0 136.981353,35.303232,0 136.982351,35.302686,0 136.983641,35.301663,0 136.985015,35.300844,0 136.985389,35.300434,0 136.986138,35.300161,0 136.987553,35.299991,0 136.987969,35.299820,0 136.988469,35.299377,0 136.988802,35.298592,0 136.989176,35.296955,0 136.989759,35.296375,0 136.989759,35.296170,0 136.988469,35.295522,0 136.986846,35.294498,0 136.986846,35.294225,0 136.987179,35.293987,0 136.987303,35.293577,0 136.986638,35.292485,0 136.986804,35.292042,0 136.987595,35.292144,0 136.988302,35.291940,0 136.988635,35.291701,0 136.989051,35.291121,0 136.989384,35.291189,0 136.990258,35.291735,0 136.991923,35.292008,0 136.991923,35.291769,0 136.992588,35.291257,0 136.994170,35.290643,0 136.994419,35.290643,0 136.995293,35.291974,0 136.995377,35.292281,0 136.995626,35.292451,0 136.996334,35.293509,0 136.998747,35.294942,0 136.999829,35.295181,0 137.003367,35.294874,0 137.006196,35.297432,0 137.006238,35.297773,0 137.005863,35.298012,0 137.006571,35.298592,0 137.006529,35.299002,0 137.007278,35.299172,0 137.008277,35.299820,0 137.009026,35.299786,0 137.009567,35.300298,0 137.009609,35.300468,0 137.009484,35.300605,0 137.008610,35.300912,0 137.009650,35.300707,0 137.009858,35.300230,0 137.010940,35.300332,0 137.011315,35.299616,0 137.011481,35.299650,0 137.011689,35.300093,0 137.011939,35.300161,0 137.012730,35.299991,0 137.013604,35.299309,0 137.013895,35.299240,0 137.013812,35.298285,0 137.013312,35.298012,0 137.013354,35.297705,0 137.013229,35.297466,0 137.013354,35.296238,0 137.013645,35.295488,0 137.013645,35.293270,0 137.013021,35.293168,0 137.011273,35.290916,0 137.010483,35.290404,0 137.010732,35.289586,0 137.010441,35.288665,0 137.010108,35.288357,0 137.010275,35.287470,0 137.010150,35.286925,0 137.011190,35.286208,0 137.011814,35.285458,0 137.012064,35.285458,0 137.012480,35.284946,0 137.012147,35.284946,0 137.011148,35.285901,0 137.010067,35.286515,0 137.009193,35.287539,0 137.008776,35.287539,0 137.008693,35.287402,0 137.008860,35.286891,0 137.009359,35.286106,0 137.010483,35.285219,0 137.010608,35.284946,0 137.010399,35.284946,0 137.010358,35.285185,0 137.010067,35.285355,0 137.009817,35.285355,0 137.009484,35.285594,0 137.009026,35.285594,0 137.008901,35.285696,0 137.008527,35.286925,0 137.008152,35.287368,0 137.007986,35.287368,0 137.007528,35.287061,0 137.007403,35.286413,0 137.007237,35.286174,0 137.006987,35.286140,0 137.006779,35.286379,0 137.006404,35.286481,0 137.005905,35.286481,0 137.005739,35.286379,0 137.005531,35.285935,0 137.005697,35.285731,0 137.005780,35.284946,0 137.005114,35.284946,0 137.004615,35.286242,0 137.003783,35.287129,0 137.003159,35.287095,0 137.002867,35.286925,0 137.002826,35.286549,0 137.003325,35.286447,0 137.003491,35.286140,0 137.003075,35.285492,0 137.002784,35.285628,0 137.002409,35.285594,0 137.002285,35.285765,0 137.002118,35.285765,0 137.001577,35.285389,0 137.001161,35.285389,0 137.000662,35.284946,0 137.000162,35.284946,0 136.999954,35.285253,0 136.999538,35.285287,0 136.999621,35.284946,0 136.998789,35.284946,0 136.998789,35.283615,0 136.998331,35.283650,0 136.997998,35.283820,0 136.996875,35.283820,0 136.996875,35.283581,0 136.996167,35.283581,0 136.994669,35.282660,0 136.994503,35.282763,0 136.994211,35.282694,0 136.994128,35.282490,0 136.994253,35.282285,0 136.993504,35.282387,0 136.992380,35.282148,0 136.991964,35.282114,0 136.991923,35.282217,0 136.991756,35.282217,0 136.991132,35.281876,0 136.990050,35.281603,0 136.989509,35.280886,0 136.988677,35.280579,0 136.988302,35.280204,0 136.987761,35.281227,0 136.986971,35.281603,0 136.986638,35.282285,0 136.986221,35.282592,0 136.985764,35.282592,0 136.985431,35.282797,0 136.985181,35.282797,0 136.984723,35.282285,0 136.983849,35.281944,0 136.983350,35.281978,0 136.981103,35.281466,0 136.980604,35.281466,0 136.979438,35.282353,0 136.979397,35.282490,0 136.979313,35.283035,0 136.979563,35.283343,0 136.979480,35.283991,0 136.980063,35.284707,0 136.980021,35.284912,0 136.979771,35.284912,0 136.979771,35.285185,0 136.979605,35.285389,0 136.979397,35.285389,0 136.979022,35.284946,0 136.978564,35.285082,0 136.978356,35.284946,0 136.978107,35.285014,0 136.977857,35.284298,0 136.976400,35.284400,0 136.975901,35.284673,0 136.975069,35.284775,0 136.974569,35.285048,0 136.973238,35.285151,0 136.972614,35.285321,0 136.971864,35.285867,0 136.971864,35.285969,0 136.970824,35.286788,0 136.970450,35.287300,0 136.969992,35.287607,0 136.970158,35.287709,0 136.970408,35.287470,0 136.970616,35.287470,0 136.970533,35.289040,0 136.970907,35.289756,0 136.971532,35.289790,0 136.972239,35.290097,0 136.976400,35.287505,0 136.978356,35.287539,0 136.978897,35.287129,0 136.979189,35.287129,0 136.980146,35.288050,0 136.980645,35.287880,0 136.980936,35.287914,0 136.981436,35.289074,0 136.982185,35.289927,0 136.982559,35.289756,0 136.982643,35.289347,0 136.982809,35.289210,0 136.984682,35.289279,0 136.986596,35.289927,0 136.986887,35.290166,0 136.987262,35.290097,0 136.987387,35.290200,0 136.987720,35.290200,0 136.988760,35.291018,0 136.988718,35.291257,0 136.988219,35.291735,0 136.987720,35.291871,0 136.986762,35.291769,0 136.986388,35.292281,0 136.986388,35.292622,0 136.987054,35.293509,0 136.986971,35.293850,0 136.986471,35.294294,0 136.986471,35.294566,0 136.989343,35.296238,0 136.989343,35.296443,0 136.989093,35.296613,0 136.988802,35.297159,0 136.988760,35.297739,0 136.988385,35.299036,0 136.987678,35.299718,0 136.987012,35.299889,0 136.985972,35.299957,0 136.985348,35.300230,0 136.985306,35.300366,0 136.985098,35.300400,0 136.984807,35.300707,0 136.983933,35.301185,0 136.982476,35.302311,0 136.981145,35.303095,0 136.980936,35.303437,0 136.980146,35.303914,0 136.979355,35.304903,0 136.978981,35.305108,0 136.978481,35.305176,0 136.978023,35.305961,0 136.977108,35.306950,0 136.976900,35.307428,0 136.976567,35.307428,0 136.976567,35.306950,0 136.976234,35.306439,0 136.975901,35.306405,0 136.975402,35.306166,0 136.974320,35.306029,0 136.974070,35.305756,0 136.973696,35.305586,0 136.973071,35.305756,0 136.972364,35.305722,0 136.972031,35.305518,0 136.971656,35.305518,0 136.971324,35.305381,0 136.971115,35.305586,0 136.971157,35.305859,0 136.970450,35.305790,0 136.970408,35.305688,0 136.969326,35.305688,0 136.968743,35.305381,0 136.967079,35.305040,0 136.966621,35.304665,0 136.966413,35.302447,0 136.965373,35.301117,0 136.965289,35.299650,0 136.965165,35.296852,0 136.965789,35.296852,0 136.965747,35.295419,0 136.965456,35.294532,0 136.966038,35.293475,0 136.964998,35.291837,0 136.964832,35.291326,0 136.966912,35.290643,0 136.967953,35.289449,0 136.968535,35.289176,0 136.968535,35.288869,0 136.968785,35.288596,0 136.968161,35.289074,0 136.967994,35.289074,0 136.965040,35.287470,0 136.965123,35.287061,0 136.966829,35.286345,0 136.965497,35.284127,0 136.963875,35.284025,0 136.963125,35.283786,0 136.962876,35.283820,0 136.962543,35.283615,0 136.962168,35.283581,0 136.961877,35.283343,0 136.960920,35.283104,0 136.960462,35.282353,0 136.959422,35.282148,0 136.959630,35.281739,0 136.960171,35.281296,0 136.960337,35.280818,0 136.958964,35.280647,0 136.956967,35.280954,0 136.956717,35.281398,0 136.955302,35.281705,0 136.954761,35.281978,0 136.954137,35.282899,0 136.953596,35.283070,0 136.953887,35.283615,0 136.953887,35.283752,0 136.953679,35.283888,0 136.953388,35.283888,0 136.947312,35.285833,0 136.950891,35.291291,0 136.950808,35.291428,0 136.950932,35.291701,0 136.948810,35.292042,0 136.948394,35.292213,0 136.949684,35.294601,0 136.949518,35.294839,0 136.950142,35.295863,0 136.950017,35.296102,0 136.950350,35.296648,0 136.950100,35.297057,0 136.950766,35.297876,0 136.950683,35.298285,0 136.951432,35.298763,0 136.951640,35.298558,0 136.952222,35.298763,0 136.952555,35.298353,0 136.952805,35.298456,0 136.953804,35.298353,0 136.953887,35.299036,0 136.954095,35.299104,0 136.953929,35.299479,0 136.954886,35.300093,0 136.955094,35.299991,0 136.955468,35.300264,0 136.955801,35.300161,0 136.956550,35.300673,0 136.957757,35.300503,0 136.957840,35.301287,0 136.958631,35.301253,0 136.958673,35.302038,0 136.959047,35.302277,0 136.959921,35.302208,0 136.960046,35.302822,0 136.960587,35.303129,0 136.960337,35.303539,0 136.961128,35.304051,0 136.961294,35.304119,0 136.961544,35.303812,0 136.961960,35.303948,0 136.963625,35.303880,0 136.963542,35.304358,0 136.964083,35.304528,0 136.963791,35.305415,0 136.963999,35.305483,0 136.963999,35.305722,0 136.964624,35.305756,0 136.964665,35.305552,0 136.965664,35.305654,0 136.965789,35.305518,0 136.965955,35.305552,0 136.965664,35.307530,0 136.965081,35.307530,0 136.964998,35.308008,0 136.964998,35.308179,0 136.965581,35.308179,0 136.965456,35.308997,0 136.965581,35.309407,0 136.965373,35.309407,0 136.965123,35.309611,0 136.964332,35.309407,0 136.963666,35.309918,0 136.963209,35.310669,0 136.963417,35.310908,0 136.962917,35.311317,0 136.962293,35.312852,0 136.961919,35.313296,0 136.961877,35.314524,0 136.961461,35.315684,0 136.961711,35.315718,0 136.961794,35.315479,0 136.962293,35.315343,0 136.962626,35.315479,0 136.962834,35.316025,0 136.963167,35.316298,0 136.964748,35.316639,0 136.965622,35.317560,0 136.965789,35.318447,0 136.966247,35.318788,0 136.967329,35.320426,0</coordinates></LinearRing></outerBoundaryIs><innerBoundaryIs><LinearRing><coordinates>137.008277,35.302004,0 137.009026,35.301867,0 137.009068,35.301731,0 137.008527,35.301867,0 137.007736,35.301321,0 137.007611,35.301151,0 137.007736,35.300844,0 137.008235,35.300912,0 137.008069,35.300639,0 137.007736,35.300605,0 137.007320,35.301083,0 137.008277,35.302004,0</coordinates></LinearRing></innerBoundaryIs></Polygon></Placemark>
    <Placemark><name>桃花台東小学校（新設）</name><styleUrl>#sch</styleUrl><Point><coordinates>136.992670,35.303080,0</coordinates></Point></Placemark>
    <Placemark><name>桃花台西小学校（新設）</name><styleUrl>#sch</styleUrl><Point><coordinates>136.977486,35.297842,0</coordinates></Point></Placemark>
  </Document>
</kml>
