{
 "type": "FeatureCollection",
 "name": "komaki-shinooka-school-bus-service-area",
 "note_ja": "小牧市教育委員会『篠岡地区 学校再編だより vol.6』掲載の「R9スクールバス通学にかかる対象エリア」図を当サイトが目視トレースして作成した非公式の近似図です。正式な対象可否は市から届く書類でご確認ください。",
 "note_en": "Unofficial approximation traced by this site from the service-area figure in the Komaki City Board of Education newsletter 'Shinooka School Reorganisation News vol.6'. Check the documents sent by the city for the authoritative answer.",
 "source_ja": "小牧市教育委員会 教育総務課『篠岡地区 学校再編だより』vol.6（令和8年8月）",
 "accuracy_note_ja": "幾何補正は図中の500mスケールバーと2校の位置注記による相似変換（残差約13m）。境界線の描画誤差を含め、目安として±100m程度の誤差があります。図の北端・東端は原図の枠で切れています。",
 "generated_from": "dayori6.pdf p.2 figure (raster trace, Douglas-Peucker tolerance 22 m)",
 "features": [
  {
   "type": "Feature",
   "properties": {
    "name": "スクールバス通学対象エリア（近似）",
    "name_en": "School bus service area (approximate)",
    "area_km2": 13.0,
    "unofficial": true
   },
   "geometry": {
    "type": "Polygon",
    "coordinates": [
     [
      [
       136.959679,
       35.32044
      ],
      [
       137.009562,
       35.320406
      ],
      [
       137.009562,
       35.305118
      ],
      [
       137.008597,
       35.304637
      ],
      [
       137.007338,
       35.304568
      ],
      [
       137.008219,
       35.303915
      ],
      [
       137.008261,
       35.303434
      ],
      [
       137.009562,
       35.30316
      ],
      [
       137.009562,
       35.30206
      ],
      [
       137.00889,
       35.300926
      ],
      [
       137.008177,
       35.300789
      ],
      [
       137.008555,
       35.29938
      ],
      [
       137.008009,
       35.29914
      ],
      [
       137.007925,
       35.298041
      ],
      [
       137.007464,
       35.297834
      ],
      [
       137.007883,
       35.292956
      ],
      [
       137.006918,
       35.292647
      ],
      [
       137.006499,
       35.291788
      ],
      [
       137.004695,
       35.290139
      ],
      [
       137.004863,
       35.289177
      ],
      [
       137.004317,
       35.288112
      ],
      [
       137.004359,
       35.286738
      ],
      [
       137.005576,
       35.286016
      ],
      [
       137.005744,
       35.285432
      ],
      [
       137.005031,
       35.285398
      ],
      [
       137.003227,
       35.286669
      ],
      [
       137.00331,
       35.286154
      ],
      [
       137.004821,
       35.28526
      ],
      [
       137.004821,
       35.284024
      ],
      [
       137.003982,
       35.284195
      ],
      [
       137.003982,
       35.28478
      ],
      [
       137.003478,
       35.28526
      ],
      [
       137.002387,
       35.285295
      ],
      [
       137.002094,
       35.286738
      ],
      [
       137.001632,
       35.286772
      ],
      [
       137.001423,
       35.28581
      ],
      [
       136.999744,
       35.285948
      ],
      [
       136.999744,
       35.283715
      ],
      [
       136.998654,
       35.284299
      ],
      [
       136.998276,
       35.285776
      ],
      [
       136.997731,
       35.286119
      ],
      [
       136.997185,
       35.285295
      ],
      [
       136.996052,
       35.285329
      ],
      [
       136.995759,
       35.284917
      ],
      [
       136.99513,
       35.284986
      ],
      [
       136.994542,
       35.284092
      ],
      [
       136.993871,
       35.284195
      ],
      [
       136.993577,
       35.284745
      ],
      [
       136.99299,
       35.283062
      ],
      [
       136.990305,
       35.283062
      ],
      [
       136.988711,
       35.282169
      ],
      [
       136.988123,
       35.28234
      ],
      [
       136.987242,
       35.281859
      ],
      [
       136.984725,
       35.281481
      ],
      [
       136.983382,
       35.280313
      ],
      [
       136.981872,
       35.279935
      ],
      [
       136.979691,
       35.282169
      ],
      [
       136.978977,
       35.282237
      ],
      [
       136.978306,
       35.281825
      ],
      [
       136.978306,
       35.281481
      ],
      [
       136.977131,
       35.281584
      ],
      [
       136.97516,
       35.280932
      ],
      [
       136.974362,
       35.280966
      ],
      [
       136.972978,
       35.281962
      ],
      [
       136.972642,
       35.282959
      ],
      [
       136.97302,
       35.283268
      ],
      [
       136.973314,
       35.284951
      ],
      [
       136.972936,
       35.284573
      ],
      [
       136.971887,
       35.284642
      ],
      [
       136.971635,
       35.283543
      ],
      [
       136.970754,
       35.283234
      ],
      [
       136.969202,
       35.28447
      ],
      [
       136.965972,
       35.28502
      ],
      [
       136.963664,
       35.287459
      ],
      [
       136.962699,
       35.2877
      ],
      [
       136.962448,
       35.288078
      ],
      [
       136.962825,
       35.288456
      ],
      [
       136.964252,
       35.287494
      ],
      [
       136.964419,
       35.289452
      ],
      [
       136.965972,
       35.289898
      ],
      [
       136.970083,
       35.287322
      ],
      [
       136.972181,
       35.287322
      ],
      [
       136.972978,
       35.28691
      ],
      [
       136.973859,
       35.287803
      ],
      [
       136.974572,
       35.2877
      ],
      [
       136.975369,
       35.289624
      ],
      [
       136.976334,
       35.289555
      ],
      [
       136.976628,
       35.289108
      ],
      [
       136.978096,
       35.28904
      ],
      [
       136.979774,
       35.289555
      ],
      [
       136.980655,
       35.290208
      ],
      [
       136.981495,
       35.290036
      ],
      [
       136.982376,
       35.290963
      ],
      [
       136.981578,
       35.291582
      ],
      [
       136.980404,
       35.291547
      ],
      [
       136.980446,
       35.292338
      ],
      [
       136.98011,
       35.292338
      ],
      [
       136.98011,
       35.292647
      ],
      [
       136.980446,
       35.293025
      ],
      [
       136.980655,
       35.292303
      ],
      [
       136.98225,
       35.291822
      ],
      [
       136.982963,
       35.290998
      ],
      [
       136.984096,
       35.291582
      ],
      [
       136.985774,
       35.291822
      ],
      [
       136.986445,
       35.291067
      ],
      [
       136.988291,
       35.290448
      ],
      [
       136.990347,
       35.293506
      ],
      [
       136.993242,
       35.294983
      ],
      [
       136.997311,
       35.294777
      ],
      [
       137.000038,
       35.297182
      ],
      [
       136.99987,
       35.297938
      ],
      [
       137.000542,
       35.298865
      ],
      [
       137.002262,
       35.299724
      ],
      [
       137.002975,
       35.299655
      ],
      [
       137.00331,
       35.300445
      ],
      [
       137.001381,
       35.30048
      ],
      [
       137.001548,
       35.301579
      ],
      [
       137.002597,
       35.302198
      ],
      [
       137.003227,
       35.301064
      ],
      [
       137.004233,
       35.301236
      ],
      [
       137.004779,
       35.302301
      ],
      [
       137.004863,
       35.304499
      ],
      [
       137.004863,
       35.305564
      ],
      [
       137.003101,
       35.308931
      ],
      [
       137.003017,
       35.312023
      ],
      [
       137.002346,
       35.312126
      ],
      [
       137.001423,
       35.313535
      ],
      [
       137.000583,
       35.313604
      ],
      [
       136.99987,
       35.314119
      ],
      [
       136.997815,
       35.313604
      ],
      [
       136.994207,
       35.313329
      ],
      [
       136.992277,
       35.314634
      ],
      [
       136.991102,
       35.314119
      ],
      [
       136.986865,
       35.313878
      ],
      [
       136.980781,
       35.314222
      ],
      [
       136.980614,
       35.313054
      ],
      [
       136.977215,
       35.313294
      ],
      [
       136.977047,
       35.311474
      ],
      [
       136.977887,
       35.31137
      ],
      [
       136.977635,
       35.309859
      ],
      [
       136.978851,
       35.308897
      ],
      [
       136.97881,
       35.308072
      ],
      [
       136.97516,
       35.307317
      ],
      [
       136.972391,
       35.305942
      ],
      [
       136.972307,
       35.305564
      ],
      [
       136.971887,
       35.305564
      ],
      [
       136.970754,
       35.30687
      ],
      [
       136.970377,
       35.30687
      ],
      [
       136.970209,
       35.30632
      ],
      [
       136.96786,
       35.305599
      ],
      [
       136.966391,
       35.305702
      ],
      [
       136.965091,
       35.305152
      ],
      [
       136.964671,
       35.305599
      ],
      [
       136.963203,
       35.305633
      ],
      [
       136.962951,
       35.305255
      ],
      [
       136.960602,
       35.304809
      ],
      [
       136.960266,
       35.304499
      ],
      [
       136.960056,
       35.302232
      ],
      [
       136.959091,
       35.301167
      ],
      [
       136.95884,
       35.296735
      ],
      [
       136.959469,
       35.296666
      ],
      [
       136.959091,
       35.294399
      ],
      [
       136.959595,
       35.293162
      ],
      [
       136.958504,
       35.29117
      ],
      [
       136.960602,
       35.290448
      ],
      [
       136.962112,
       35.288902
      ],
      [
       136.960308,
       35.287562
      ],
      [
       136.959217,
       35.28715
      ],
      [
       136.960853,
       35.285982
      ],
      [
       136.959385,
       35.283715
      ],
      [
       136.957161,
       35.283611
      ],
      [
       136.955357,
       35.282649
      ],
      [
       136.954854,
       35.282753
      ],
      [
       136.954854,
       35.282306
      ],
      [
       136.953763,
       35.281344
      ],
      [
       136.953931,
       35.280348
      ],
      [
       136.950281,
       35.280451
      ],
      [
       136.950113,
       35.281035
      ],
      [
       136.948351,
       35.281481
      ],
      [
       136.947638,
       35.282409
      ],
      [
       136.946841,
       35.282787
      ],
      [
       136.947134,
       35.283611
      ],
      [
       136.946044,
       35.28368
      ],
      [
       136.940967,
       35.285432
      ],
      [
       136.941513,
       35.287356
      ],
      [
       136.944366,
       35.291341
      ],
      [
       136.944366,
       35.291547
      ],
      [
       136.941681,
       35.29196
      ],
      [
       136.943568,
       35.296495
      ],
      [
       136.943736,
       35.298144
      ],
      [
       136.944911,
       35.298728
      ],
      [
       136.945918,
       35.298728
      ],
      [
       136.94617,
       35.29835
      ],
      [
       136.947344,
       35.298453
      ],
      [
       136.94726,
       35.299484
      ],
      [
       136.947848,
       35.299999
      ],
      [
       136.949316,
       35.300342
      ],
      [
       136.949358,
       35.300583
      ],
      [
       136.950952,
       35.300686
      ],
      [
       136.950994,
       35.301339
      ],
      [
       136.951246,
       35.301614
      ],
      [
       136.951917,
       35.301476
      ],
      [
       136.952211,
       35.302301
      ],
      [
       136.95347,
       35.302369
      ],
      [
       136.953805,
       35.303744
      ],
      [
       136.954686,
       35.304156
      ],
      [
       136.95691,
       35.30395
      ],
      [
       136.956994,
       35.304465
      ],
      [
       136.957455,
       35.304534
      ],
      [
       136.957329,
       35.305771
      ],
      [
       136.959259,
       35.305771
      ],
      [
       136.959091,
       35.307351
      ],
      [
       136.95842,
       35.307351
      ],
      [
       136.958462,
       35.308278
      ],
      [
       136.959007,
       35.308347
      ],
      [
       136.95884,
       35.309275
      ],
      [
       136.957833,
       35.309137
      ],
      [
       136.957161,
       35.309584
      ],
      [
       136.956029,
       35.312126
      ],
      [
       136.955735,
       35.312126
      ],
      [
       136.954896,
       35.315699
      ],
      [
       136.956113,
       35.31594
      ],
      [
       136.95628,
       35.316489
      ],
      [
       136.957245,
       35.317005
      ],
      [
       136.958126,
       35.317005
      ],
      [
       136.958378,
       35.317692
      ],
      [
       136.958923,
       35.318001
      ],
      [
       136.958923,
       35.319238
      ],
      [
       136.959469,
       35.319203
      ],
      [
       136.959679,
       35.319581
      ],
      [
       136.959679,
       35.32044
      ]
     ]
    ]
   }
  },
  {
   "type": "Feature",
   "properties": {
    "name": "桃花台東小学校（新設）",
    "name_en": "Tokadai-Higashi Elementary (new)",
    "kind": "new"
   },
   "geometry": {
    "type": "Point",
    "coordinates": [
     136.9926695,
     35.3030795
    ]
   }
  },
  {
   "type": "Feature",
   "properties": {
    "name": "桃花台西小学校（新設）",
    "name_en": "Tokadai-Nishi Elementary (new)",
    "kind": "new"
   },
   "geometry": {
    "type": "Point",
    "coordinates": [
     136.9774857,
     35.2978422
    ]
   }
  }
 ]
}